FENGYUN 1C DEB          
1 37703U 99025ELU 17345.62135625  .00000912  00000-0  41104-3 0  9990
2 37703  99.1283 133.6086 0052965 124.9313 299.4355 14.24083418460878
